{
  "norad_id": 58713,
  "name": "STARLINK-30973",
  "history": [
    {
      "epoch": "2026-03-28T09:56:41.662176Z",
      "apogee_km": 475.950308654591,
      "perigee_km": 474.5349486936775,
      "latitude_deg": 3.62437177804999e-05,
      "longitude_deg": 167.8490760825443,
      "height_km": 475.99751358394906,
      "semi_major_axis_km": 6853.379628674134,
      "eccentricity": 0.00010326,
      "inclination_deg": 53.1603,
      "raan_deg": 142.8578,
      "arg_perigee_deg": 78.2952,
      "mean_anomaly_deg": 281.8165,
      "mean_motion_rev_day": 15.3019077
    },
    {
      "epoch": "2026-03-29T09:27:29.686176Z",
      "apogee_km": 475.98675385155093,
      "perigee_km": 474.4986109873098,
      "latitude_deg": 1.2518216151835211e-05,
      "longitude_deg": 169.63189981808688,
      "height_km": 476.00057338839764,
      "semi_major_axis_km": 6853.37968241943,
      "eccentricity": 0.00010857,
      "inclination_deg": 53.1589,
      "raan_deg": 138.3064,
      "arg_perigee_deg": 79.1283,
      "mean_anomaly_deg": 280.984,
      "mean_motion_rev_day": 15.30190752
    },
    {
      "epoch": "2026-03-30T10:32:18.646080Z",
      "apogee_km": 475.91868277773574,
      "perigee_km": 474.43973713962714,
      "latitude_deg": -1.872836004508591e-05,
      "longitude_deg": 147.54386780181278,
      "height_km": 476.04431471208426,
      "semi_major_axis_km": 6853.316209958682,
      "eccentricity": 0.0001079,
      "inclination_deg": 53.1597,
      "raan_deg": 133.4524,
      "arg_perigee_deg": 87.4262,
      "mean_anomaly_deg": 272.6862,
      "mean_motion_rev_day": 15.3021201
    },
    {
      "epoch": "2026-03-30T19:56:39.050592Z",
      "apogee_km": 476.0921065798393,
      "perigee_km": 474.3780782195299,
      "latitude_deg": 2.1762997183707343e-07,
      "longitude_deg": 4.251686514733962,
      "height_km": 476.1434367584158,
      "semi_major_axis_km": 6853.372092399684,
      "eccentricity": 0.00012505,
      "inclination_deg": 53.1593,
      "raan_deg": 131.6315,
      "arg_perigee_deg": 90.69,
      "mean_anomaly_deg": 269.4244,
      "mean_motion_rev_day": 15.30193294
    }
  ]
}